{"type": "FeatureCollection", "features": [ {"type": "Feature", "properties": {"norad_id": 66949, "name": "STARLINK-36096", "group": "last-30-days", "lat": 46.66927599591437, "lon": 48.135148890020545, "alt_km": 358.80004735927196, "timestamp": "2025-12-23T16:57:11.063414+00:00", "meta": {"OBJECT_NAME": "STARLINK-36096", "OBJECT_ID": "2025-286AA", "EPOCH": "2025-12-23T06:00:00.999648", "MEAN_MOTION": 15.69564369, "ECCENTRICITY": 8.976e-05, "INCLINATION": 53.159, "RA_OF_ASC_NODE": 357.7483, "ARG_OF_PERICENTER": 73.3694, "MEAN_ANOMALY": 293.5446, "EPHEMERIS_TYPE": 0, "CLASSIFICATION_TYPE": "U", "NORAD_CAT_ID": 66949, "ELEMENT_SET_NO": 999, "REV_AT_EPOCH": 368, "BSTAR": -0.018689666, "MEAN_MOTION_DOT": -0.01986298, "MEAN_MOTION_DDOT": 0}, "tle": {"line1": "1 66949U 25286AA  25357.25001157 -.01986298  00000+0 -18690-1 0  9999", "line2": "2 66949  53.1590 357.7483 0000897  73.3694 293.5446 15.69564369  3686"}}, "geometry": {"type": "Point", "coordinates": [48.135148890020545, 46.66927599591437]}}, {"type": "Feature", "properties": {"norad_id": 66950, "name": "STARLINK-36111", "group": "last-30-days", "lat": 48.42394414157203, "lon": 53.183790583150504, "alt_km": 358.3637088699297, "timestamp": "2025-12-23T16:57:11.063426+00:00", "meta": {"OBJECT_NAME": "STARLINK-36111", "OBJECT_ID": "2025-286AB", "EPOCH": "2025-12-23T06:00:00.999648", "MEAN_MOTION": 15.69588366, "ECCENTRICITY": 0.00010523, "INCLINATION": 53.1594, "RA_OF_ASC_NODE": 357.7402, "ARG_OF_PERICENTER": 79.1075, "MEAN_ANOMALY": 291.5978, "EPHEMERIS_TYPE": 0, "CLASSIFICATION_TYPE": "U", "NORAD_CAT_ID": 66950, "ELEMENT_SET_NO": 999, "REV_AT_EPOCH": 368, "BSTAR": -0.018666674, "MEAN_MOTION_DOT": -0.0198602, "MEAN_MOTION_DDOT": 0}, "tle": {"line1": "1 66950U 25286AB  25357.25001157 -.01986020  00000+0 -18667-1 0  9998", "line2": "2 66950  53.1594 357.7402 0001052  79.1075 291.5978 15.69588366  3685"}}, "geometry": {"type": "Point", "coordinates": [53.183790583150504, 48.42394414157203]}}, {"type": "Feature", "properties": {"norad_id": 66951, "name": "STARLINK-35999", "group": "last-30-days", "lat": 49.21467251996735, "lon": 55.838078115659634, "alt_km": 358.248186749096, "timestamp": "2025-12-23T16:57:11.063436+00:00", "meta": {"OBJECT_NAME": "STARLINK-35999", "OBJECT_ID": "2025-286AC", "EPOCH": "2025-12-23T06:00:00.999648", "MEAN_MOTION": 15.69590417, "ECCENTRICITY": 0.00010499, "INCLINATION": 53.159, "RA_OF_ASC_NODE": 357.7361, "ARG_OF_PERICENTER": 77.8454, "MEAN_ANOMALY": 294.7759, "EPHEMERIS_TYPE": 0, "CLASSIFICATION_TYPE": "U", "NORAD_CAT_ID": 66951, "ELEMENT_SET_NO": 999, "REV_AT_EPOCH": 368, "BSTAR": -0.018693858, "MEAN_MOTION_DOT": -0.01988718, "MEAN_MOTION_DDOT": 0}, "tle": {"line1": "1 66951U 25286AC  25357.25001157 -.01988718  00000+0 -18694-1 0  9995", "line2": "2 66951  53.1590 357.7361 0001049  77.8454 294.7759 15.69590417  3680"}}, "geometry": {"type": "Point", "coordinates": [55.838078115659634, 49.21467251996735]}}, {"type": "Feature", "properties": {"norad_id": 66952, "name": "STARLINK-36122", "group": "last-30-days", "lat": 47.57518377537761, "lon": 50.619882928053116, "alt_km": 358.68045973242533, "timestamp": "2025-12-23T16:57:11.063446+00:00", "meta": {"OBJECT_NAME": "STARLINK-36122", "OBJECT_ID": "2025-286AD", "EPOCH": "2025-12-23T06:00:00.999648", "MEAN_MOTION": 15.69530912, "ECCENTRICITY": 7.608e-05, "INCLINATION": 53.159, "RA_OF_ASC_NODE": 357.7441, "ARG_OF_PERICENTER": 72.2225, "MEAN_ANOMALY": 296.6118, "EPHEMERIS_TYPE": 0, "CLASSIFICATION_TYPE": "U", "NORAD_CAT_ID": 66952, "ELEMENT_SET_NO": 999, "REV_AT_EPOCH": 368, "BSTAR": -0.018115445, "MEAN_MOTION_DOT": -0.0192982, "MEAN_MOTION_DDOT": 0}, "tle": {"line1": "1 66952U 25286AD  25357.25001157 -.01929820  00000+0 -18115-1 0  9993", "line2": "2 66952  53.1590 357.7441 0000760  72.2225 296.6118 15.69530912  3688"}}, "geometry": {"type": "Point", "coordinates": [50.619882928053116, 47.57518377537761]}}, {"type": "Feature", "properties": {"norad_id": 66953, "name": "HULIANWANG DIGUI-114", "group": "last-30-days", "lat": 36.72966690292498, "lon": 159.54764693041722, "alt_km": 1004.7492380524754, "timestamp": "2025-12-23T16:57:11.063456+00:00", "meta": {"OBJECT_NAME": "HULIANWANG DIGUI-114", "OBJECT_ID": "2025-287A", "EPOCH": "2025-12-20T09:09:14.655168", "MEAN_MOTION": 13.66161866, "ECCENTRICITY": 0.00096738, "INCLINATION": 86.496, "RA_OF_ASC_NODE": 343.3747, "ARG_OF_PERICENTER": 185.0352, "MEAN_ANOMALY": 175.071, "EPHEMERIS_TYPE": 0, "CLASSIFICATION_TYPE": "U", "NORAD_CAT_ID": 66953, "ELEMENT_SET_NO": 999, "REV_AT_EPOCH": 157, "BSTAR": 3.033618e-06, "MEAN_MOTION_DOT": 1.9e-07, "MEAN_MOTION_DDOT": 0}, "tle": {"line1": "1 66953U 25287A   25354.38141962  .00000019  00000+0  30336-5 0  9995", "line2": "2 66953  86.4960 343.3747 0009673 185.0352 175.0710 13.66161866  1572"}}, "geometry": {"type": "Point", "coordinates": [159.54764693041722, 36.72966690292498]}}, {"type": "Feature", "properties": {"norad_id": 66954, "name": "HULIANWANG DIGUI-115", "group": "last-30-days", "lat": 25.976467888951166, "lon": 160.45905718056926, "alt_km": 1004.2614509420155, "timestamp": "2025-12-23T16:57:11.063466+00:00", "meta": {"OBJECT_NAME": "HULIANWANG DIGUI-115", "OBJECT_ID": "2025-287B", "EPOCH": "2025-12-20T14:23:56.755680", "MEAN_MOTION": 13.66603826, "ECCENTRICITY": 0.00094984, "INCLINATION": 86.4975, "RA_OF_ASC_NODE": 343.2967, "ARG_OF_PERICENTER": 182.0064, "MEAN_ANOMALY": 178.1058, "EPHEMERIS_TYPE": 0, "CLASSIFICATION_TYPE": "U", "NORAD_CAT_ID": 66954, "ELEMENT_SET_NO": 999, "REV_AT_EPOCH": 160, "BSTAR": -9.79328e-07, "MEAN_MOTION_DOT": 1.6e-07, "MEAN_MOTION_DDOT": 0}, "tle": {"line1": "1 66954U 25287B   25354.59996245  .00000016  00000+0 -97933-6 0  9996", "line2": "2 66954  86.4975 343.2967 0009498 182.0064 178.1058 13.66603826  1604"}}, "geometry": {"type": "Point", "coordinates": [160.45905718056926, 25.976467888951166]}}, {"type": "Feature", "properties": {"norad_id": 66955, "name": "HULIANWANG DIGUI-116", "group": "last-30-days", "lat": 15.077947718669666, "lon": 161.2044921015813, "alt_km": 1004.7347775505059, "timestamp": "2025-12-23T16:57:11.063476+00:00", "meta": {"OBJECT_NAME": "HULIANWANG DIGUI-116", "OBJECT_ID": "2025-287C", "EPOCH": "2025-12-20T16:07:29.631072", "MEAN_MOTION": 13.67009251, "ECCENTRICITY": 0.00086607, "INCLINATION": 86.4918, "RA_OF_ASC_NODE": 343.2556, "ARG_OF_PERICENTER": 174.268, "MEAN_ANOMALY": 185.8579, "EPHEMERIS_TYPE": 0, "CLASSIFICATION_TYPE": "U", "NORAD_CAT_ID": 66955, "ELEMENT_SET_NO": 999, "REV_AT_EPOCH": 161, "BSTAR": 0.00012368885, "MEAN_MOTION_DOT": 1.2e-06, "MEAN_MOTION_DDOT": 0}, "tle": {"line1": "1 66955U 25287C   25354.67187073  .00000120  00000+0  12369-3 0  9999", "line2": "2 66955  86.4918 343.2556 0008660 174.2680 185.8579 13.67009251  1610"}}, "geometry": {"type": "Point", "coordinates": [161.2044921015813, 15.077947718669666]}}, {"type": "Feature", "properties": {"norad_id": 66956, "name": "HULIANWANG DIGUI-117", "group": "last-30-days", "lat": -2.372948160654577, "lon": 162.30823799038427, "alt_km": 1005.5454172593763, "timestamp": "2025-12-23T16:57:11.063487+00:00", "meta": {"OBJECT_NAME": "HULIANWANG DIGUI-117", "OBJECT_ID": "2025-287D", "EPOCH": "2025-12-18T14:55:12.079776", "MEAN_MOTION": 13.67770338, "ECCENTRICITY": 0.00076767, "INCLINATION": 86.4971, "RA_OF_ASC_NODE": 344.0126, "ARG_OF_PERICENTER": 176.3616, "MEAN_ANOMALY": 183.76, "EPHEMERIS_TYPE": 0, "CLASSIFICATION_TYPE": "U", "NORAD_CAT_ID": 66956, "ELEMENT_SET_NO": 999, "REV_AT_EPOCH": 133, "BSTAR": 1.0922436e-05, "MEAN_MOTION_DOT": 2.6e-07, "MEAN_MOTION_DDOT": 0}, "tle": {"line1": "1 66956U 25287D   25352.62166759  .00000026  00000+0  10922-4 0  9990", "line2": "2 66956  86.4971 344.0126 0007676 176.3616 183.7600 13.67770338  1332"}}, "geometry": {"type": "Point", "coordinates": [162.30823799038427, -2.372948160654577]}}, {"type": "Feature", "properties": {"norad_id": 66957, "name": "HULIANWANG DIGUI-118", "group": "last-30-days", "lat": -4.320044964969449, "lon": 162.42356145634443, "alt_km": 1008.2531211869118, "timestamp": "2025-12-23T16:57:11.063500+00:00", "meta": {"OBJECT_NAME": "HULIANWANG DIGUI-118", "OBJECT_ID": "2025-287E", "EPOCH": "2025-12-21T00:50:13.849728", "MEAN_MOTION": 13.6751011, "ECCENTRICITY": 0.00054729, "INCLINATION": 86.4946, "RA_OF_ASC_NODE": 343.1304, "ARG_OF_PERICENTER": 170.9065, "MEAN_ANOMALY": 189.2194, "EPHEMERIS_TYPE": 0, "CLASSIFICATION_TYPE": "U", "NORAD_CAT_ID": 66957, "ELEMENT_SET_NO": 999, "REV_AT_EPOCH": 166, "BSTAR": 0.00013223305, "MEAN_MOTION_DOT": 1.28e-06, "MEAN_MOTION_DDOT": 0}, "tle": {"line1": "1 66957U 25287E   25355.03488252  .00000128  00000+0  13223-3 0  9993", "line2": "2 66957  86.4946 343.1304 0005472 170.9065 189.2194 13.67510110  1668"}}, "geometry": {"type": "Point", "coordinates": [162.42356145634443, -4.320044964969449]}}, {"type": "Feature", "properties": {"norad_id": 66958, "name": "CZ-6A R/B", "group": "last-30-days", "lat": 35.009989397093214, "lon": 159.4790642961838, "alt_km": 889.008158014637, "timestamp": "2025-12-23T16:57:11.063511+00:00", "meta": {"OBJECT_NAME": "CZ-6A R/B", "OBJECT_ID": "2025-287F", "EPOCH": "2025-12-23T05:56:34.073376", "MEAN_MOTION": 13.94921301, "ECCENTRICITY": 0.0107186, "INCLINATION": 86.5063, "RA_OF_ASC_NODE": 342.1059, "ARG_OF_PERICENTER": 70.5679, "MEAN_ANOMALY": 290.704, "EPHEMERIS_TYPE": 0, "CLASSIFICATION_TYPE": "U", "NORAD_CAT_ID": 66958, "ELEMENT_SET_NO": 999, "REV_AT_EPOCH": 200, "BSTAR": 3.8039872e-05, "MEAN_MOTION_DOT": 7.2e-07, "MEAN_MOTION_DDOT": 0}, "tle": {"line1": "1 66958U 25287F   25357.24761659  .00000072  00000+0  38040-4 0  9997", "line2": "2 66958  86.5063 342.1059 0107186  70.5679 290.7040 13.94921301  2002"}}, "geometry": {"type": "Point", "coordinates": [159.4790642961838, 35.009989397093214]}}]}